{
    "links": {
        "self": "http://www.neowsapp.com/rest/v1/neo/3647277?api_key=iIulBulltgU6a56xZRHN4H3l9WmuAYTsLGpBGhQ2"
    },
    "id": "3647277",
    "neo_reference_id": "3647277",
    "name": "(2013 RL21)",
    "designation": "2013 RL21",
    "nasa_jpl_url": "http://ssd.jpl.nasa.gov/sbdb.cgi?sstr=3647277",
    "absolute_magnitude_h": 23.7,
    "estimated_diameter": {
        "kilometers": {
            "estimated_diameter_min": 0.0483676488,
            "estimated_diameter_max": 0.1081533507
        },
        "meters": {
            "estimated_diameter_min": 48.3676488219,
            "estimated_diameter_max": 108.1533506775
        },
        "miles": {
            "estimated_diameter_min": 0.0300542543,
            "estimated_diameter_max": 0.0672033557
        },
        "feet": {
            "estimated_diameter_min": 158.6865169607,
            "estimated_diameter_max": 354.8338390368
        }
    },
    "is_potentially_hazardous_asteroid": false,
    "close_approach_data": [
        {
            "close_approach_date": "1961-09-30",
            "close_approach_date_full": "1961-Sep-30 17:06",
            "epoch_date_close_approach": -260434440000,
            "relative_velocity": {
                "kilometers_per_second": "4.7229290095",
                "kilometers_per_hour": "17002.5444343021",
                "miles_per_hour": "10564.719901414"
            },
            "miss_distance": {
                "astronomical": "0.1699150628",
                "lunar": "66.0969594292",
                "kilometers": "25418931.475796236",
                "miles": "15794591.6141146168"
            },
            "orbiting_body": "Earth"
        },
        {
            "close_approach_date": "1987-10-01",
            "close_approach_date_full": "1987-Oct-01 08:24",
            "epoch_date_close_approach": 560075040000,
            "relative_velocity": {
                "kilometers_per_second": "4.5885661216",
                "kilometers_per_hour": "16518.8380377538",
                "miles_per_hour": "10264.1635574032"
            },
            "miss_distance": {
                "astronomical": "0.1595953492",
                "lunar": "62.0825908388",
                "kilometers": "23875124.302226204",
                "miles": "14835314.3187374552"
            },
            "orbiting_body": "Earth"
        },
        {
            "close_approach_date": "2013-09-29",
            "close_approach_date_full": "2013-Sep-29 22:38",
            "epoch_date_close_approach": 1380494280000,
            "relative_velocity": {
                "kilometers_per_second": "4.274527908",
                "kilometers_per_hour": "15388.3004688635",
                "miles_per_hour": "9561.6914774446"
            },
            "miss_distance": {
                "astronomical": "0.1518777278",
                "lunar": "59.0804361142",
                "kilometers": "22720584.579319786",
                "miles": "14117916.6010976068"
            },
            "orbiting_body": "Earth"
        },
        {
            "close_approach_date": "2039-09-29",
            "close_approach_date_full": "2039-Sep-29 07:23",
            "epoch_date_close_approach": 2200893780000,
            "relative_velocity": {
                "kilometers_per_second": "4.3563459902",
                "kilometers_per_hour": "15682.8455648115",
                "miles_per_hour": "9744.7103455353"
            },
            "miss_distance": {
                "astronomical": "0.1625356089",
                "lunar": "63.2263518621",
                "kilometers": "24314980.890593043",
                "miles": "15108628.5290002734"
            },
            "orbiting_body": "Earth"
        },
        {
            "close_approach_date": "2065-09-29",
            "close_approach_date_full": "2065-Sep-29 19:40",
            "epoch_date_close_approach": 3021478800000,
            "relative_velocity": {
                "kilometers_per_second": "4.2681681128",
                "kilometers_per_hour": "15365.4052060698",
                "miles_per_hour": "9547.465251516"
            },
            "miss_distance": {
                "astronomical": "0.1628940883",
                "lunar": "63.3658003487",
                "kilometers": "24368608.645271921",
                "miles": "15141951.2705616698"
            },
            "orbiting_body": "Earth"
        }
    ],
    "orbital_data": {
        "orbit_id": "16",
        "orbit_determination_date": "2017-04-06 08:44:49",
        "first_observation_date": "2013-09-04",
        "last_observation_date": "2013-10-23",
        "data_arc_in_days": 49,
        "observations_used": 40,
        "orbit_uncertainty": "6",
        "minimum_orbit_intersection": ".152777",
        "jupiter_tisserand_invariant": "3.687",
        "epoch_osculation": "2459000.5",
        "eccentricity": ".4330777301387546",
        "semi_major_axis": "2.028051979086574",
        "inclination": "4.729041738390036",
        "ascending_node_longitude": "209.5724709367331",
        "orbital_period": "1054.913984399362",
        "perihelion_distance": "1.149747831380352",
        "perihelion_argument": "156.9347590003868",
        "aphelion_distance": "2.906356126792796",
        "perihelion_time": "2458674.345435290447",
        "mean_anomaly": "111.3035233505717",
        "mean_motion": ".3412600508893375",
        "equinox": "J2000",
        "orbit_class": {
            "orbit_class_type": "AMO",
            "orbit_class_description": "Near-Earth asteroid orbits similar to that of 1221 Amor",
            "orbit_class_range": "1.017 AU < q (perihelion) < 1.3 AU"
        }
    },
    "is_sentry_object": false
}